start=new Date('2022-10-23T00:00:00.000Z').valueOf();
sats=[{"BSTAR":"0.00014444000000","TLE_LINE2":"2 50813  53.2148 298.5492 0002078  48.5073 311.6097 15.08843296 44264","RA_OF_ASC_NODE":"298.5492","TIME_SYSTEM":"UTC","CLASSIFICATION_TYPE":"U","ECCENTRICITY":"0.00020780","COUNTRY_CODE":"US","GP_ID":"215927957","SITE":"AFETR","DECAY_DATE":null,"OBJECT_TYPE":"PAYLOAD","EPOCH":"2022-10-22T17:46:08.642784","REV_AT_EPOCH":"4426","RCS_SIZE":"LARGE","REF_FRAME":"TEME","MEAN_ANOMALY":"311.6097","MEAN_MOTION":"15.08843296","PERIAPSIS":"538.298","OBJECT_NAME":"STARLINK-3349","FILE":"3629797","NORAD_CAT_ID":"50813","APOAPSIS":"541.173","CENTER_NAME":"EARTH","MEAN_MOTION_DDOT":"0.0000000000000","MEAN_MOTION_DOT":"0.00002012","OBJECT_ID":"2022-001L","MEAN_ELEMENT_THEORY":"SGP4","INCLINATION":"53.2148","LAUNCH_DATE":"2022-01-06","ARG_OF_PERICENTER":"48.5073","PERIOD":"95.437","EPHEMERIS_TYPE":"0","SEMIMAJOR_AXIS":"6917.870","ELEMENT_SET_NO":"999","TLE_LINE1":"1 50813U 22001L   22295.74037781  .00002012  00000-0  14444-3 0  9994"},{"ECCENTRICITY":"0.00024750","CLASSIFICATION_TYPE":"U","TIME_SYSTEM":"UTC","RA_OF_ASC_NODE":"309.5274","TLE_LINE2":"2 50814  53.2180 309.5274 0002475  31.3976 328.7163 15.08836262 45365","BSTAR":"-0.00001356800000","RCS_SIZE":"LARGE","REV_AT_EPOCH":"4536","EPOCH":"2022-10-22T12:30:47.359872","OBJECT_TYPE":"PAYLOAD","DECAY_DATE":null,"SITE":"AFETR","COUNTRY_CODE":"US","GP_ID":"215869855","NORAD_CAT_ID":"50814","FILE":"3629460","PERIAPSIS":"538.045","OBJECT_NAME":"STARLINK-3324","MEAN_ANOMALY":"328.7163","MEAN_MOTION":"15.08836262","REF_FRAME":"TEME","APOAPSIS":"541.469","CENTER_NAME":"EARTH","MEAN_MOTION_DDOT":"0.0000000000000","MEAN_ELEMENT_THEORY":"SGP4","MEAN_MOTION_DOT":"-0.00000504","OBJECT_ID":"2022-001M","ARG_OF_PERICENTER":"31.3976","LAUNCH_DATE":"2022-01-06","INCLINATION":"53.2180","TLE_LINE1":"1 50814U 22001M   22295.52138148 -.00000504  00000-0 -13568-4 0  9993","ELEMENT_SET_NO":"999","SEMIMAJOR_AXIS":"6917.892","EPHEMERIS_TYPE":"0","PERIOD":"95.438"},{"MEAN_MOTION_DDOT":"0.0000000000000","MEAN_MOTION_DOT":"0.00000200","OBJECT_ID":"2022-001N","MEAN_ELEMENT_THEORY":"SGP4","INCLINATION":"53.2182","ARG_OF_PERICENTER":"36.4106","LAUNCH_DATE":"2022-01-06","PERIOD":"95.438","EPHEMERIS_TYPE":"0","SEMIMAJOR_AXIS":"6917.887","TLE_LINE1":"1 50815U 22001N   22295.73114634  .00000200  00000-0  30682-4 0  9998","ELEMENT_SET_NO":"999","TLE_LINE2":"2 50815  53.2182 308.5828 0002631  36.4106 323.7065 15.08837703 44127","BSTAR":"0.00003068200000","TIME_SYSTEM":"UTC","RA_OF_ASC_NODE":"308.5828","ECCENTRICITY":"0.00026310","CLASSIFICATION_TYPE":"U","GP_ID":"215926455","COUNTRY_CODE":"US","DECAY_DATE":null,"SITE":"AFETR","OBJECT_TYPE":"PAYLOAD","EPOCH":"2022-10-22T17:32:51.043776","RCS_SIZE":"LARGE","REV_AT_EPOCH":"4412","REF_FRAME":"TEME","OBJECT_NAME":"STARLINK-3234","PERIAPSIS":"537.932","MEAN_ANOMALY":"323.7065","MEAN_MOTION":"15.08837703","NORAD_CAT_ID":"50815","FILE":"3629797","APOAPSIS":"541.573","CENTER_NAME":"EARTH"},{"APOAPSIS":"541.297","CENTER_NAME":"EARTH","FILE":"3629797","NORAD_CAT_ID":"50816","MEAN_ANOMALY":"326.0351","MEAN_MOTION":"15.08855094","OBJECT_NAME":"STARLINK-3342","PERIAPSIS":"538.102","REF_FRAME":"TEME","REV_AT_EPOCH":"4412","RCS_SIZE":"LARGE","EPOCH":"2022-10-22T18:25:50.758176","SITE":"AFETR","DECAY_DATE":null,"OBJECT_TYPE":"PAYLOAD","COUNTRY_CODE":"US","GP_ID":"215927707","CLASSIFICATION_TYPE":"U","ECCENTRICITY":"0.00023090","TIME_SYSTEM":"UTC","RA_OF_ASC_NODE":"308.4237","BSTAR":"0.00038844000000","TLE_LINE2":"2 50816  53.2165 308.4237 0002309  34.0789 326.0351 15.08855094 44122","ELEMENT_SET_NO":"999","TLE_LINE1":"1 50816U 22001P   22295.76794859  .00005902  00000-0  38844-3 0  9996","SEMIMAJOR_AXIS":"6917.834","EPHEMERIS_TYPE":"0","PERIOD":"95.437","LAUNCH_DATE":"2022-01-06","ARG_OF_PERICENTER":"34.0789","INCLINATION":"53.2165","MEAN_ELEMENT_THEORY":"SGP4","OBJECT_ID":"2022-001P","MEAN_MOTION_DOT":"0.00005902","MEAN_MOTION_DDOT":"0.0000000000000"},{"DECAY_DATE":null,"SITE":"AFETR","OBJECT_TYPE":"PAYLOAD","GP_ID":"215893758","COUNTRY_CODE":"US","RCS_SIZE":"LARGE","REV_AT_EPOCH":"4406","EPOCH":"2022-10-22T07:55:13.571616","BSTAR":"-0.00001747700000","TLE_LINE2":"2 50817  53.2181 310.3856 0002424  46.5111 313.6082 15.08843246 44067","CLASSIFICATION_TYPE":"U","ECCENTRICITY":"0.00024240","RA_OF_ASC_NODE":"310.3856","TIME_SYSTEM":"UTC","CENTER_NAME":"EARTH","APOAPSIS":"541.412","REF_FRAME":"TEME","FILE":"3629476","NORAD_CAT_ID":"50817","MEAN_ANOMALY":"313.6082","MEAN_MOTION":"15.08843246","OBJECT_NAME":"STARLINK-3341","PERIAPSIS":"538.059","OBJECT_ID":"2022-001Q","MEAN_MOTION_DOT":"-0.00000567","MEAN_ELEMENT_THEORY":"SGP4","MEAN_MOTION_DDOT":"0.0000000000000","EPHEMERIS_TYPE":"0","PERIOD":"95.437","ELEMENT_SET_NO":"999","TLE_LINE1":"1 50817U 22001Q   22295.33001819 -.00000567  00000-0 -17477-4 0  9991","SEMIMAJOR_AXIS":"6917.870","LAUNCH_DATE":"2022-01-06","ARG_OF_PERICENTER":"46.5111","INCLINATION":"53.2181"},{"BSTAR":"0.00003280700000","TLE_LINE2":"2 50818  53.2176 308.3690 0002266  40.7304 319.3857 15.08846337 44123","RA_OF_ASC_NODE":"308.3690","TIME_SYSTEM":"UTC","CLASSIFICATION_TYPE":"U","ECCENTRICITY":"0.00022660","GP_ID":"215926205","COUNTRY_CODE":"US","DECAY_DATE":null,"OBJECT_TYPE":"PAYLOAD","SITE":"AFETR","EPOCH":"2022-10-22T18:36:25.701408","REV_AT_EPOCH":"4412","RCS_SIZE":"LARGE","REF_FRAME":"TEME","MEAN_MOTION":"15.08846337","MEAN_ANOMALY":"319.3857","PERIAPSIS":"538.158","OBJECT_NAME":"STARLINK-3336","FILE":"3629797","NORAD_CAT_ID":"50818","CENTER_NAME":"EARTH","APOAPSIS":"541.294","MEAN_MOTION_DDOT":"0.0000000000000","OBJECT_ID":"2022-001R","MEAN_MOTION_DOT":"0.00000234","MEAN_ELEMENT_THEORY":"SGP4","INCLINATION":"53.2176","LAUNCH_DATE":"2022-01-06","ARG_OF_PERICENTER":"40.7304","PERIOD":"95.437","EPHEMERIS_TYPE":"0","SEMIMAJOR_AXIS":"6917.861","TLE_LINE1":"1 50818U 22001R   22295.77529747  .00000234  00000-0  32807-4 0  9998","ELEMENT_SET_NO":"999"},{"TLE_LINE1":"1 50819U 22001S   22295.51770687  .00002983  00000-0  20541-3 0  9996","ELEMENT_SET_NO":"999","SEMIMAJOR_AXIS":"6917.872","EPHEMERIS_TYPE":"0","PERIOD":"95.437","ARG_OF_PERICENTER":"38.9503","LAUNCH_DATE":"2022-01-06","INCLINATION":"53.2163","MEAN_ELEMENT_THEORY":"SGP4","OBJECT_ID":"2022-001S","MEAN_MOTION_DOT":"0.00002983","MEAN_MOTION_DDOT":"0.0000000000000","CENTER_NAME":"EARTH","APOAPSIS":"541.482","NORAD_CAT_ID":"50819","FILE":"3629476","OBJECT_NAME":"STARLINK-3327","PERIAPSIS":"537.992","MEAN_ANOMALY":"321.1671","MEAN_MOTION":"15.08842736","REF_FRAME":"TEME","RCS_SIZE":"LARGE","REV_AT_EPOCH":"4409","EPOCH":"2022-10-22T12:25:29.873568","SITE":"AFETR","DECAY_DATE":null,"OBJECT_TYPE":"PAYLOAD","GP_ID":"215894760","COUNTRY_CODE":"US","ECCENTRICITY":"0.00025220","CLASSIFICATION_TYPE":"U","RA_OF_ASC_NODE":"309.5451","TIME_SYSTEM":"UTC","TLE_LINE2":"2 50819  53.2163 309.5451 0002522  38.9503 321.1671 15.08842736 44093","BSTAR":"0.00020541000000"},{"OBJECT_ID":"2022-001T","MEAN_MOTION_DOT":"0.00001353","MEAN_ELEMENT_THEORY":"SGP4","MEAN_MOTION_DDOT":"0.0000000000000","EPHEMERIS_TYPE":"0","PERIOD":"95.437","TLE_LINE1":"1 50820U 22001T   22295.76425877  .00001353  00000-0  10306-3 0  9991","ELEMENT_SET_NO":"999","SEMIMAJOR_AXIS":"6917.857","LAUNCH_DATE":"2022-01-06","ARG_OF_PERICENTER":"28.8588","INCLINATION":"53.2162","SITE":"AFETR","DECAY_DATE":null,"OBJECT_TYPE":"PAYLOAD","COUNTRY_CODE":"US","GP_ID":"215927207","REV_AT_EPOCH":"4412","RCS_SIZE":"LARGE","EPOCH":"2022-10-22T18:20:31.957728","BSTAR":"0.00010306000000","TLE_LINE2":"2 50820  53.2162 308.4395 0002526  28.8588 331.2544 15.08847599 44121","CLASSIFICATION_TYPE":"U","ECCENTRICITY":"0.00025260","RA_OF_ASC_NODE":"308.4395","TIME_SYSTEM":"UTC","CENTER_NAME":"EARTH","APOAPSIS":"541.470","REF_FRAME":"TEME","FILE":"3629797","NORAD_CAT_ID":"50820","MEAN_MOTION":"15.08847599","MEAN_ANOMALY":"331.2544","PERIAPSIS":"537.975","OBJECT_NAME":"STARLINK-3339"},{"MEAN_MOTION_DDOT":"0.0000000000000","MEAN_ELEMENT_THEORY":"SGP4","MEAN_MOTION_DOT":"-0.00001504","OBJECT_ID":"2022-001U","LAUNCH_DATE":"2022-01-06","ARG_OF_PERICENTER":"36.5126","INCLINATION":"53.2159","TLE_LINE1":"1 50821U 22001U   22295.74955115 -.00001504  00000-0 -76433-4 0  9997","ELEMENT_SET_NO":"999","SEMIMAJOR_AXIS":"6917.900","EPHEMERIS_TYPE":"0","PERIOD":"95.438","CLASSIFICATION_TYPE":"U","ECCENTRICITY":"0.00022590","TIME_SYSTEM":"UTC","RA_OF_ASC_NODE":"308.4972","BSTAR":"-0.00007643300000","TLE_LINE2":"2 50821  53.2159 308.4972 0002259  36.5126 323.6020 15.08833449 44129","RCS_SIZE":"LARGE","REV_AT_EPOCH":"4412","EPOCH":"2022-10-22T17:59:21.219360","DECAY_DATE":null,"OBJECT_TYPE":"PAYLOAD","SITE":"AFETR","GP_ID":"215927958","COUNTRY_CODE":"US","FILE":"3629797","NORAD_CAT_ID":"50821","MEAN_ANOMALY":"323.6020","MEAN_MOTION":"15.08833449","PERIAPSIS":"538.203","OBJECT_NAME":"STARLINK-3346","REF_FRAME":"TEME","CENTER_NAME":"EARTH","APOAPSIS":"541.328"},{"LAUNCH_DATE":"2022-01-06","ARG_OF_PERICENTER":"39.3540","INCLINATION":"53.2156","EPHEMERIS_TYPE":"0","PERIOD":"95.438","TLE_LINE1":"1 50822U 22001V   22295.75690969  .00000249  00000-0  33747-4 0  9996","ELEMENT_SET_NO":"999","SEMIMAJOR_AXIS":"6917.897","MEAN_MOTION_DDOT":"0.0000000000000","MEAN_MOTION_DOT":"0.00000249","OBJECT_ID":"2022-001V","MEAN_ELEMENT_THEORY":"SGP4","REF_FRAME":"TEME","FILE":"3629563","NORAD_CAT_ID":"50822","MEAN_ANOMALY":"320.7605","MEAN_MOTION":"15.08834417","OBJECT_NAME":"STARLINK-3343","PERIAPSIS":"538.306","APOAPSIS":"541.219","CENTER_NAME":"EARTH","BSTAR":"0.00003374700000","TLE_LINE2":"2 50822  53.2156 308.4759 0002106  39.3540 320.7605 15.08834417 45373","CLASSIFICATION_TYPE":"U","ECCENTRICITY":"0.00021060","TIME_SYSTEM":"UTC","RA_OF_ASC_NODE":"308.4759","OBJECT_TYPE":"PAYLOAD","DECAY_DATE":null,"SITE":"AFETR","GP_ID":"215897988","COUNTRY_CODE":"US","REV_AT_EPOCH":"4537","RCS_SIZE":"LARGE","EPOCH":"2022-10-22T18:09:56.997216"}];
